1 45404U 20019AW  25186.11027018  .00000889  00000+0  78543-4 0  9996
2 45404  53.0540 168.0493 0001335  87.7688 272.3454 15.06398142292541
1 45405U 20019AX  25186.22821667  .00001072  00000+0  90822-4 0  9990
2 45405  53.0540 167.5151 0001247  85.9753 274.1379 15.06401534292560
1 45406U 20019AY  25185.37308816  .00000977  00000+0  84448-4 0  9992
2 45406  53.0539 171.3544 0001231  75.3899 284.7226 15.06404712292430
1 45408U 20019BA  25185.73154110  .00000413  00000+0  46621-4 0  9996
2 45408  53.0543 199.7468 0001362  83.7549 276.3595 15.06394701292078
1 45412U 20019BE  25186.23927346  .00001336  00000+0  10857-3 0  9992
2 45412  53.0548 167.4644 0001327  68.6888 291.4242 15.06402084292560
1 45413U 20019BF  25185.67164496  .00000542  00000+0  55270-4 0  9996
2 45413  53.0541 170.0134 0001467  89.5689 270.5468 15.06399607292579
1 45414U 20019BG  25186.18767543  .00001422  00000+0  11436-3 0  9999
2 45414  53.0540 167.6988 0001310  88.7990 271.3149 15.06400148292568
1 45415U 20019BH  25185.68270400  .00001169  00000+0  97367-4 0  9991
2 45415  53.0538 169.9638 0001257  83.1741 276.9391 15.06396430292508
1 45416U 20019BJ  25186.25002315  .00029841  00000+0  17163-2 0  9995
2 45416  53.0532 167.2558 0001012  51.8532  50.7924 15.12246461292576
1 45417U 20019BK  25185.45509489  .00001219  00000+0  10072-3 0  9993
2 45417  53.0544 200.9894 0001187  77.0605 283.0516 15.06396124292306
1 45419U 20019BM  25186.24756492  .00001121  00000+0  94102-4 0  9990
2 45419  53.0543 197.4318 0001079  87.5831 272.5281 15.06401452292173
1 45531U 20025A   25185.28738893  .00001305  00000+0  10648-3 0  9996
2 45531  53.0545 141.7379 0001341  90.6211 269.4932 15.06408712287659
1 45532U 20025B   25185.89556274 -.00000227  00000+0  36875-5 0  9990
2 45532  53.0534 139.0095 0001454  88.1731 271.9424 15.06397313287745
1 45535U 20025E   25185.78275387  .00007158  00000+0  25834-3 0  9994
2 45535  53.0758 111.0922 0000605  78.6098 281.4969 15.29582565288147
1 45538U 20025H   25186.12679932  .00000765  00000+0  70220-4 0  9997
2 45538  53.0547 137.6893 0001459  87.3435 272.7721 15.06398462287196
1 45540U 20025K   25186.13146008  .00000945  00000+0  82302-4 0  9998
2 45540  53.0544 137.9486 0001397  71.9316 288.1825 15.06402370287195
1 45542U 20025M   25186.10197203  .00001108  00000+0  93264-4 0  9991
2 45542  53.0544 138.0851 0001056  81.1176 278.9932 15.06401892287187
1 45543U 20025N   25185.27632560  .00000841  00000+0  75384-4 0  9995
2 45543  53.0543 141.7872 0001385  82.5422 277.5724 15.06397536286749
1 45544U 20025P   25185.29475517  .00000612  00000+0  60005-4 0  9995
2 45544  53.0547 141.7090 0001449  89.0280 271.0875 15.06396369287651
1 45551U 20025W   25185.91668981  .00044832  00000+0  13325-2 0  9994
2 45551  53.0556 106.3827 0001068  61.3967  15.9268 15.34340575  5902
1 45553U 20025Y   25186.19944394  .00116201  00000+0  13194-2 0  9996
2 45553  53.0475 105.8781 0005958 145.3592 214.7810 15.61483696287632
1 45554U 20025Z   25186.15996546  .00020148  00000+0  70574-3 0  9999
2 45554  53.0621  93.3824 0003224  14.4039 345.7052 15.29485524287809
1 45555U 20025AA  25186.12961591  .00000569  00000+0  57066-4 0  9996
2 45555  53.0547 117.9596 0001529  90.9549 269.1615 15.06406432287458
1 45557U 20025AC  25186.08383443  .00090837  00000+0  11745-2 0  9996
2 45557  53.0476 109.4026 0002762 147.4215 212.6967 15.58200813287560
1 45558U 20025AD  25186.17594421  .00118199  00000+0  12261-2 0  9993
2 45558  53.0528 109.5983 0002433 149.6895 210.4260 15.63811022287563
1 45563U 20025AJ  25185.85662039  .00076396  00000+0  45531-3 0  9993
2 45563  53.0438  46.5004 0004015 118.3888 241.7537 15.77270773289031
1 45564U 20025AK  25186.19965360  .00000737  00000+0  68386-4 0  9995
2 45564  53.0549 117.6443 0001409  94.1136 266.0014 15.06403747287470
1 45565U 20025AL  25186.21212484  .00490286  00000+0  22896-1 0  9996
2 45565  53.0550 117.0990 0001531 103.2693 256.8472 15.17384582287483
1 45567U 20025AN  25186.08538951  .00001253  00000+0  10302-3 0  9996
2 45567  53.0545 118.1598 0001433  89.1960 270.9194 15.06404355287448
1 45568U 20025AP  25186.10015853  .00000451  00000+0  49194-4 0  9992
2 45568  53.0549 118.3337 0001594  96.5500 263.5671 15.06403746287447
1 45569U 20025AQ  25186.08907237  .00000765  00000+0  70274-4 0  9997
2 45569  53.0544 118.1371 0001441  92.8435 267.2719 15.06402694287441
1 45570U 20025AR  25186.08170427  .00000908  00000+0  79871-4 0  9993
2 45570  53.0546 118.1714 0001572  87.4437 272.6732 15.06400806287452
1 45572U 20025AT  25186.13563876  .00021125  00000+0  78110-3 0  9993
2 45572  53.0636  84.0747 0005199 358.6483   1.4500 15.27673295287935
1 45573U 20025AU  25186.20056618  .00000589  00000+0  58437-4 0  9995
2 45573  53.0553 107.6366 0001597  93.0878 267.0294 15.06404478287605
1 45576U 20025AX  25185.78775250  .00000198  00000+0  32168-4 0  9999
2 45576  53.0555 109.4926 0001612  84.8661 275.2511 15.06402871288157
1 45578U 20025AZ  25186.17843713  .00003733  00000+0  26923-3 0  9994
2 45578  53.0556 107.7354 0001651  98.9157 261.2019 15.06424580287603
1 45580U 20025BB  25185.85317660  .00000092  00000+0  25090-4 0  9998
2 45580  53.0557 119.2032 0001517  93.7610 266.3553 15.06397837288015
1 45581U 20025BC  25186.05682264  .00000970  00000+0  83994-4 0  9999
2 45581  53.0554 108.2833 0002346  96.3195 263.8061 15.06403561287587
1 45582U 20025BD  25186.07893333  .00002773  00000+0  20494-3 0  9991
2 45582  53.0553 108.1857 0001379  91.2676 268.8471 15.06411031287586
1 45586U 20025BH  25185.91668981 -.00009549  00000+0 -44509-3 0  9999
2 45586  53.0530 108.4556 0001255  99.0213  16.8405 15.18315434  5837
1 45587U 20025BJ  25186.16018314  .00151280  00000+0  12656-2 0  9992
2 45587  53.0520  94.1875 0004916 160.8390 199.2812 15.69022819287795
1 45588U 20025BK  25185.94883880  .00032030  00000+0  40487-3 0  9991
2 45588  53.0517  62.7660 0004016  97.1714 262.9754 15.59262270288215
1 45589U 20025BL  25186.14896686  .00000768  00000+0  70442-4 0  9991
2 45589  53.0553 107.8696 0001447  90.1699 269.9455 15.06403493287597
1 45590U 20025BM  25185.16944069 -.00000014  00000+0  17985-4 0  9991
2 45590  53.0530 142.2695 0001163  91.0274 269.0848 15.06385958287648
1 45660U 20035D   25186.14988681  .00000913  00000+0  80138-4 0  9994
2 45660  53.0548  97.8664 0001343  90.9406 269.1737 15.06404518281018
1 45663U 20035G   25185.93544824  .00013860  00000+0  58063-3 0  9996
2 45663  53.0262  80.0430 0002470 169.5277 190.5771 15.23815962281653
1 45665U 20035J   25186.15357363  .00000704  00000+0  66147-4 0  9999
2 45665  53.0562  97.8503 0001671  83.7262 276.3917 15.06405890281019
1 45668U 20035M   25186.15730306  .00001791  00000+0  13908-3 0  9997
2 45668  53.0573  98.1502 0002003 109.5116 250.6090 15.06405333281011
1 45669U 20035N   25186.13548277  .00011906  00000+0  61133-3 0  9992
2 45669  53.0503  91.2095 0005461  30.8544 329.2770 15.16913118281090
1 45670U 20035P   25185.96835234  .00000744  00000+0  68858-4 0  9996
2 45670  53.0563  68.6817 0001398  93.9706 266.1443 15.06404954281709
1 45671U 20035Q   25185.91399214  .00001033  00000+0  88197-4 0  9995
2 45671  53.0565  98.9224 0001376  98.1837 261.9308 15.06405639281375
1 45673U 20035S   25186.19412262  .00001360  00000+0  11019-3 0  9998
2 45673  53.0559  97.6690 0001508  95.6394 264.4767 15.06406318281024
1 45674U 20035T   25186.13514333  .00001474  00000+0  11782-3 0  9998
2 45674  53.0552  97.9355 0001411  94.6611 265.4540 15.06408838281022
1 45675U 20035U   25186.12408276  .00000393  00000+0  45284-4 0  9990
2 45675  53.0550  97.9805 0001406  90.7329 269.3821 15.06407255281003
1 45676U 20035V   25186.16094420  .00001800  00000+0  13967-3 0  9993
2 45676  53.0550  97.8154 0001469  90.5331 269.5826 15.06410350281018
1 45677U 20035W   25185.90662510  .00004668  00000+0  33196-3 0  9997
2 45677  53.0538  98.9557 0001396  90.7586 269.3563 15.06409478281382
1 45679U 20035Y   25185.90385381 -.00000633  00000+0 -23617-4 0  9995
2 45679  53.0573  88.9734 0001502  93.0245 267.0916 15.06399934281524
1 45685U 20035AE  25186.00097333 -.00000350  00000+0 -45784-5 0  9997
2 45685  53.0561  82.9533 0001473  94.2552 265.8606 15.06410083281217
1 45686U 20035AF  25186.12869003 -.00000676  00000+0 -26468-4 0  9990
2 45686  53.0552  87.9645 0001439  95.6914 264.4239 15.06412722281158
1 45689U 20035AJ  25186.14711956  .00000219  00000+0  33603-4 0  9998
2 45689  53.0549  87.8761 0001634 115.4142 244.7016 15.06408388281153
1 45693U 20035AN  25185.94439915  .00000718  00000+0  67120-4 0  9997
2 45693  53.0537  88.7888 0001554  97.6504 262.4662 15.06403919281529
1 45695U 20035AQ  25186.14433336  .00001190  00000+0  98761-4 0  9993
2 45695  53.0559  67.8833 0001362  94.6077 265.5068 15.06410559281434
1 45696U 20035AR  25186.15448928  .00002178  00000+0  16497-3 0  9990
2 45696  53.0554  87.8476 0001413  95.2600 264.8550 15.06418647281154
1 45697U 20035AS  25185.99785114  .00001562  00000+0  12370-3 0  9995
2 45697  53.0551  68.5482 0001115  95.3193 264.7923 15.06400067281411
1 45699U 20035AU  25185.92020376  .00018072  00000+0  56828-3 0  9992
2 45699  53.0568  57.1131 0003320 161.4394 198.6729 15.33046530281975
1 45700U 20035AV  25185.97204772  .00000489  00000+0  51730-4 0  9995
2 45700  53.0558  68.6658 0001673 102.9556 257.1620 15.06402835281815
1 45701U 20035AW  25186.06789040 -.00000632  00000+0 -23507-4 0  9996
2 45701  53.0555  68.2322 0001428  93.3580 266.7572 15.06395416281431
1 45703U 20035AY  25185.94365303  .00045871  00000+0  17070-2 0  9994
2 45703  53.0491  49.4913 0007642  32.4508 327.6959 15.27045280282089
1 45706U 20035BB  25185.95663614  .00074989  00000+0  49289-2 0  9993
2 45706  53.0547  68.7278 0001466 104.4689 255.6463 15.06930336281407
1 45710U 20035BF  25185.96098534  .00003584  00000+0  25931-3 0  9994
2 45710  53.0555  68.7131 0001423  93.1672 266.9480 15.06410890281815
